{
  "norad_id": 58156,
  "name": "STARLINK-30784",
  "history": [
    {
      "epoch": "2026-03-28T19:40:51.779136",
      "apogee_km": 476.01296537706276,
      "perigee_km": 474.33609711159716,
      "latitude_deg": 51.14727794542472,
      "longitude_deg": 74.32419903995469,
      "semi_major_axis_km": 6853.31153124433,
      "eccentricity": 0.00012234,
      "inclination_deg": 53.1598,
      "raan_deg": 131.0696,
      "arg_perigee_deg": 80.3224,
      "mean_anomaly_deg": 279.7915,
      "mean_motion_rev_day": 15.30213577
    }
  ]
}